{
    "links": {
        "self": "http://www.neowsapp.com/rest/v1/neo/3508124?api_key=iIulBulltgU6a56xZRHN4H3l9WmuAYTsLGpBGhQ2"
    },
    "id": "3508124",
    "neo_reference_id": "3508124",
    "name": "(2010 CP19)",
    "designation": "2010 CP19",
    "nasa_jpl_url": "http://ssd.jpl.nasa.gov/sbdb.cgi?sstr=3508124",
    "absolute_magnitude_h": 25.9,
    "estimated_diameter": {
        "kilometers": {
            "estimated_diameter_min": 0.0175612318,
            "estimated_diameter_max": 0.0392681082
        },
        "meters": {
            "estimated_diameter_min": 17.561231848,
            "estimated_diameter_max": 39.2681081809
        },
        "miles": {
            "estimated_diameter_min": 0.0109120402,
            "estimated_diameter_max": 0.0244000636
        },
        "feet": {
            "estimated_diameter_min": 57.6155918963,
            "estimated_diameter_max": 128.8323800441
        }
    },
    "is_potentially_hazardous_asteroid": false,
    "close_approach_data": [
        {
            "close_approach_date": "2001-02-04",
            "close_approach_date_full": "2001-Feb-04 05:20",
            "epoch_date_close_approach": 981264000000,
            "relative_velocity": {
                "kilometers_per_second": "13.9884508542",
                "kilometers_per_hour": "50358.4230750444",
                "miles_per_hour": "31290.765715713"
            },
            "miss_distance": {
                "astronomical": "0.3354224349",
                "lunar": "130.4793271761",
                "kilometers": "50178481.811253663",
                "miles": "31179462.7866120294"
            },
            "orbiting_body": "Earth"
        },
        {
            "close_approach_date": "2010-02-16",
            "close_approach_date_full": "2010-Feb-16 09:41",
            "epoch_date_close_approach": 1266313260000,
            "relative_velocity": {
                "kilometers_per_second": "7.877522178",
                "kilometers_per_hour": "28359.0798409087",
                "miles_per_hour": "17621.2293600357"
            },
            "miss_distance": {
                "astronomical": "0.0373010554",
                "lunar": "14.5101105506",
                "kilometers": "5580158.436591998",
                "miles": "3467349.6693576524"
            },
            "orbiting_body": "Earth"
        },
        {
            "close_approach_date": "2019-02-26",
            "close_approach_date_full": "2019-Feb-26 06:17",
            "epoch_date_close_approach": 1551161820000,
            "relative_velocity": {
                "kilometers_per_second": "9.9968789052",
                "kilometers_per_hour": "35988.7640588626",
                "miles_per_hour": "22362.0184231305"
            },
            "miss_distance": {
                "astronomical": "0.3069851378",
                "lunar": "119.4172186042",
                "kilometers": "45924322.736536486",
                "miles": "28536050.9142200668"
            },
            "orbiting_body": "Earth"
        },
        {
            "close_approach_date": "2116-02-20",
            "close_approach_date_full": "2116-Feb-20 01:06",
            "epoch_date_close_approach": 4611603960000,
            "relative_velocity": {
                "kilometers_per_second": "7.5559831921",
                "kilometers_per_hour": "27201.5394916992",
                "miles_per_hour": "16901.978802495"
            },
            "miss_distance": {
                "astronomical": "0.067018142",
                "lunar": "26.070057238",
                "kilometers": "10025771.29455754",
                "miles": "6229725.406232452"
            },
            "orbiting_body": "Earth"
        }
    ],
    "orbital_data": {
        "orbit_id": "8",
        "orbit_determination_date": "2017-04-06 08:58:24",
        "first_observation_date": "2010-02-15",
        "last_observation_date": "2010-02-20",
        "data_arc_in_days": 5,
        "observations_used": 26,
        "orbit_uncertainty": "8",
        "minimum_orbit_intersection": ".0370679",
        "jupiter_tisserand_invariant": "5.301",
        "epoch_osculation": "2455244.5",
        "eccentricity": ".1478020722399656",
        "semi_major_axis": "1.186879317912166",
        "inclination": "13.97182095705054",
        "ascending_node_longitude": "145.3244136113808",
        "orbital_period": "472.2894777843522",
        "perihelion_distance": "1.011456095225991",
        "perihelion_argument": "27.24551730915437",
        "aphelion_distance": "1.362302540598341",
        "perihelion_time": "2455268.006561985858",
        "mean_anomaly": "342.0822552418311",
        "mean_motion": ".7622443796310371",
        "equinox": "J2000",
        "orbit_class": {
            "orbit_class_type": "APO",
            "orbit_class_description": "Near-Earth asteroid orbits which cross the Earth’s orbit similar to that of 1862 Apollo",
            "orbit_class_range": "a (semi-major axis) > 1.0 AU; q (perihelion) < 1.017 AU"
        }
    },
    "is_sentry_object": false
}